NORAD_CAT_ID,OBJECT_NAME,OBJECT_TYPE,EPOCH,MEAN_MOTION,ECCENTRICITY,INCLINATION,RA_OF_ASC_NODE,ARG_OF_PERICENTER,MEAN_ANOMALY,BSTAR,MEAN_MOTION_DOT,MEAN_MOTION_DDOT,TLE_LINE0,TLE_LINE1,TLE_LINE2,SEMIMAJOR_AXIS,PERIOD,APOGEE,PERIGEE,DECAYED
52554.0,STARLINK-3770,PAYLOAD,2022-11-16 13:28:36,15.08840098,0.0002183,53.2151,162.1197,43.8959,316.2207,0.00027727,4.127e-05,0.0,0 STARLINK-3770,1 52554U 22051X   22320.56153820  .00004127  00000-0  27727-3 0  9992,2 52554  53.2151 162.1197 0002183  43.8959 316.2207 15.08840098 28834,6917.88,95.438,541.255,538.235,0.0
52554.0,STARLINK-3770,PAYLOAD,2022-11-16 19:50:09,15.08846819,0.0002206,53.2152,160.9304,44.5722,315.5447,0.00031078,4.662e-05,0.0,0 STARLINK-3770,1 52554U 22051X   22320.82649569  .00004662  00000-0  31078-3 0  9999,2 52554  53.2152 160.9304 0002206  44.5722 315.5447 15.08846819 28940,6917.86,95.437,541.251,538.198,0.0
52554.0,STARLINK-3770,PAYLOAD,2022-11-17 06:57:50,15.08852853,0.0002253,53.215,158.8488,45.0599,315.0576,0.00034309,5.178e-05,0.0,0 STARLINK-3770,1 52554U 22051X   22321.29017221  .00005178  00000-0  34309-3 0  9998,2 52554  53.2150 158.8488 0002253  45.0599 315.0576 15.08852853 28940,6917.840999999999,95.437,541.265,538.148,0.0
52554.0,STARLINK-3770,PAYLOAD,2022-11-18 13:10:09,15.08857162,0.0002342,53.2149,153.1987,47.0564,313.0624,0.00018363,2.637e-05,0.0,0 STARLINK-3770,1 52554U 22051X   22322.54871975  .00002637  00000-0  18363-3 0  9990,2 52554  53.2149 153.1987 0002342  47.0564 313.0624 15.08857162 29203,6917.828,95.436,541.313,538.073,0.0
52554.0,STARLINK-3770,PAYLOAD,2022-11-18 19:31:41,15.08850736,0.0002369,53.215,152.0094,47.2758,312.8434,2.6745e-05,1.37e-06,0.0,0 STARLINK-3770,1 52554U 22051X   22322.81367944  .00000137  00000-0  26745-4 0  9993,2 52554  53.2150 152.0094 0002369  47.2758 312.8434 15.08850736 29170,6917.848000000001,95.437,541.351,538.0740000000002,0.0
52554.0,STARLINK-3770,PAYLOAD,2022-11-19 00:17:51,15.08848545,0.0002326,53.2151,151.11700000000005,47.3017,312.8171,-1.0526e-06,-3.05e-06,0.0,0 STARLINK-3770,1 52554U 22051X   22323.01239962 -.00000305  00000-0 -10526-5 0  9994,2 52554  53.2151 151.1170 0002326  47.3017 312.8171 15.08848545 29272,6917.854,95.437,541.328,538.11,0.0
52554.0,STARLINK-3770,PAYLOAD,2022-11-19 19:22:28,15.08853261,0.0002281,53.2161,147.5481,47.7068,312.4117,1.3261e-05,-7.7e-07,0.0,0 STARLINK-3770,1 52554U 22051X   22323.80727201 -.00000077  00000-0  13261-4 0  9992,2 52554  53.2161 147.5481 0002281  47.7068 312.4117 15.08853261 29320,6917.84,95.437,541.283,538.127,0.0
52554.0,STARLINK-3770,PAYLOAD,2022-11-20 00:08:38,15.08841751,0.0002316,53.216,146.6559,47.103,313.0156,-8.6821e-05,-1.67e-05,0.0,0 STARLINK-3770,1 52554U 22051X   22324.00600034 -.00001670  00000-0 -86821-4 0  9992,2 52554  53.2160 146.6559 0002316  47.1030 313.0156 15.08841751 29429,6917.875,95.437,541.342,538.138,0.0
52554.0,STARLINK-3770,PAYLOAD,2022-11-20 20:48:39,15.08835104,0.0002249,53.2161,142.7903,48.2519,311.8665,1.0474000000000003e-05,-1.22e-06,0.0,0 STARLINK-3770,1 52554U 22051X   22324.86712302 -.00000122  00000-0  10474-4 0  9999,2 52554  53.2161 142.7903 0002249  48.2519 311.8665 15.08835104 29481,6917.895,95.438,541.316,538.205,0.0
52554.0,STARLINK-3770,PAYLOAD,2022-11-21 04:45:35,15.0883726,0.0002268,53.2162,141.3034,48.3928,311.7258,3.1128000000000004e-05,2.07e-06,0.0,0 STARLINK-3770,1 52554U 22051X   22325.19832298  .00000207  00000-0  31128-4 0  9995,2 52554  53.2162 141.3034 0002268  48.3928 311.7258 15.08837260 29604,6917.889,95.438,541.323,538.185,0.0
52554.0,STARLINK-3770,PAYLOAD,2022-11-21 11:07:07,15.08838501,0.0002295,53.2162,140.1138,48.9779,311.1412,3.492e-05,2.67e-06,0.0,0 STARLINK-3770,1 52554U 22051X   22325.46328282  .00000267  00000-0  34920-4 0  9997,2 52554  53.2162 140.1138 0002295  48.9779 311.1412 15.08838501 29577,6917.885,95.438,541.3380000000002,538.1619999999998,0.0
52554.0,STARLINK-3770,PAYLOAD,2022-11-21 19:04:03,15.08841478,0.0002306,53.2163,138.6271,49.6056,310.5137,3.7146e-05,3.03e-06,0.0,0 STARLINK-3770,1 52554U 22051X   22325.79448122  .00000303  00000-0  37146-4 0  9993,2 52554  53.2163 138.6271 0002306  49.6056 310.5137 15.08841478 29627,6917.876,95.437,541.336,538.146,0.0
52554.0,STARLINK-3770,PAYLOAD,2022-11-22 12:33:17,15.08838121,0.000227,53.2164,135.3559,50.1007,310.0184,0.00016076,2.271e-05,0.0,0 STARLINK-3770,1 52554U 22051X   22326.52312281  .00002271  00000-0  16076-3 0  9995,2 52554  53.2164 135.3559 0002270  50.1007 310.0184 15.08838121 29802,6917.886,95.438,541.321,538.181,0.0
52554.0,STARLINK-3770,PAYLOAD,2022-11-22 18:54:50,15.08841066,0.0002286,53.2165,134.1666,50.7533,309.3661,0.00015322,2.151e-05,0.0,0 STARLINK-3770,1 52554U 22051X   22326.78808126  .00002151  00000-0  15322-3 0  9991,2 52554  53.2165 134.1666 0002286  50.7533 309.3661 15.08841066 29775,6917.877,95.437,541.3240000000002,538.161,0.0
52554.0,STARLINK-3770,PAYLOAD,2022-11-23 10:48:41,15.08846676,0.0002375,53.2156,131.1926,51.5772,308.5433,0.00017488,2.497e-05,0.0,0 STARLINK-3770,1 52554U 22051X   22327.45047816  .00002497  00000-0  17488-3 0  9995,2 52554  53.2156 131.1926 0002375  51.5772 308.5433 15.08846676 29875,6917.86,95.437,541.368,538.082,0.0
52554.0,STARLINK-3770,PAYLOAD,2022-11-23 17:10:13,15.08848538,0.000238,53.2158,130.0031,51.7686,308.3520000000001,0.00018478,2.654e-05,0.0,0 STARLINK-3770,1 52554U 22051X   22327.71543653  .00002654  00000-0  18478-3 0  9999,2 52554  53.2158 130.0031 0002380  51.7686 308.3520 15.08848538 29980,6917.854,95.437,541.366,538.073,0.0
52554.0,STARLINK-3770,PAYLOAD,2022-11-24 10:39:28,15.08842507,0.0002434,53.2161,126.7323,53.0708,307.0507,6.957899999999999e-05,8.19e-06,0.0,0 STARLINK-3770,1 52554U 22051X   22328.44408058  .00000819  00000-0  69579-4 0  9999,2 52554  53.2161 126.7323 0002434  53.0708 307.0507 15.08842507 30095,6917.873000000001,95.437,541.422,538.054,0.0
52554.0,STARLINK-3770,PAYLOAD,2022-11-24 20:11:47,15.08843074,0.0002273,53.2164,124.9476,52.4779,307.6419,4.6481e-05,4.52e-06,0.0,0 STARLINK-3770,1 52554U 22051X   22328.84152076  .00000452  00000-0  46481-4 0  9999,2 52554  53.2164 124.9476 0002273  52.4779 307.6419 15.08843074 30086,6917.871,95.437,541.308,538.164,0.0
52554.0,STARLINK-3770,PAYLOAD,2022-11-25 10:30:15,15.08844105,0.0002227,53.2166,122.2708,52.7658,307.3537,6.300899999999999e-05,7.15e-06,0.0,0 STARLINK-3770,1 52554U 22051X   22329.43767742  .00000715  00000-0  63009-4 0  9994,2 52554  53.2166 122.2708 0002227  52.7658 307.3537 15.08844105 30179,6917.868,95.437,541.273,538.192,0.0
52554.0,STARLINK-3770,PAYLOAD,2022-11-25 16:51:47,15.08849361,0.0002278,53.2165,121.0818,52.4212,307.6987,0.00010266,1.346e-05,0.0,0 STARLINK-3770,1 52554U 22051X   22329.70263312  .00001346  00000-0  10266-3 0  9995,2 52554  53.2165 121.0818 0002278  52.4212 307.6987 15.08849361 30289,6917.852,95.437,541.293,538.141,0.0
52554.0,STARLINK-3770,PAYLOAD,2022-11-25 20:02:33,15.08847996,0.0002312,53.2162,120.4873,52.4183,307.7019,0.00014263,1.983e-05,0.0,0 STARLINK-3770,1 52554U 22051X   22329.83511306  .00001983  00000-0  14263-3 0  9996,2 52554  53.2162 120.4873 0002312  52.4183 307.7019 15.08847996 30230,6917.856,95.437,541.32,538.122,0.0
52554.0,STARLINK-3770,PAYLOAD,2022-11-26 10:21:01,15.08845759,0.0002353,53.2162,117.811,53.2417,306.8791,0.00013034,1.787e-05,0.0,0 STARLINK-3770,1 52554U 22051X   22330.43127280  .00001787  00000-0  13034-3 0  9995,2 52554  53.2162 117.8110 0002353  53.2417 306.8791 15.08845759 30320,6917.863,95.437,541.356,538.1,0.0
52554.0,STARLINK-3770,PAYLOAD,2022-11-26 19:53:21,15.08842135,0.0002332,53.2166,116.0269,52.3697,307.7506,7.9617e-05,9.79e-06,0.0,0 STARLINK-3770,1 52554U 22051X   22330.82871530  .00000979  00000-0  79617-4 0  9994,2 52554  53.2166 116.0269 0002332  52.3697 307.7506 15.08842135 30450,6917.874,95.437,541.352,538.126,0.0
52554.0,STARLINK-3770,PAYLOAD,2022-11-27 08:36:26,15.08839594,0.0002347,53.2165,113.648,52.6978,307.4228,3.4411999999999995e-05,2.59e-06,0.0,0 STARLINK-3770,1 52554U 22051X   22331.35863741  .00000259  00000-0  34412-4 0  9993,2 52554  53.2165 113.6480 0002347  52.6978 307.4228 15.08839594 30462,6917.882,95.438,541.37,538.123,0.0
52554.0,STARLINK-3770,PAYLOAD,2022-11-27 14:57:59,15.0883513,0.000235,53.2169,112.4585,52.7157,307.4049,-2.0119e-05,-6.09e-06,0.0,0 STARLINK-3770,1 52554U 22051X   22331.62360139 -.00000609  00000-0 -20119-4 0  9996,2 52554  53.2169 112.4585 0002350  52.7157 307.4049 15.08835130 30578,6917.895,95.438,541.386,538.135,0.0
52554.0,STARLINK-3770,PAYLOAD,2022-11-28 10:02:36,15.08841325,0.0002324,53.2173,108.8898,50.8294,309.2904,2.624300000000001e-05,1.29e-06,0.0,0 STARLINK-3770,1 52554U 22051X   22332.41847547  .00000129  00000-0  26243-4 0  9996,2 52554  53.2173 108.8898 0002324  50.8294 309.2904 15.08841325 30697,6917.876,95.437,541.349,538.134,0.0
52554.0,STARLINK-3770,PAYLOAD,2022-11-28 16:24:08,15.08841596,0.0002311,53.2166,107.6998,49.7623,310.3571,6.5416e-05,7.53e-06,0.0,0 STARLINK-3770,1 52554U 22051X   22332.68343394  .00000753  00000-0  65416-4 0  9994,2 52554  53.2166 107.6998 0002311  49.7623 310.3571 15.08841596 30666,6917.876,95.437,541.339,538.1419999999998,0.0
52554.0,STARLINK-3770,PAYLOAD,2022-11-28 19:34:55,15.08832846,0.00022,53.217,107.1055,47.8806,312.2372,-1.2164e-05,-4.82e-06,0.0,0 STARLINK-3770,1 52554U 22051X   22332.81592161 -.00000482  00000-0 -12164-4 0  9990,2 52554  53.2170 107.1055 0002200  47.8806 312.2372 15.08832846 30757,6917.901999999999,95.438,541.289,538.245,0.0
52554.0,STARLINK-3770,PAYLOAD,2022-11-29 09:53:23,15.0883952,0.0002271,53.2182,104.4305,49.6333,310.4857,0.00012534,1.707e-05,0.0,0 STARLINK-3770,1 52554U 22051X   22333.41207519  .00001707  00000-0  12534-3 0  9996,2 52554  53.2182 104.4305 0002271  49.6333 310.4857 15.08839520 30845,6917.882,95.438,541.318,538.1759999999998,0.0
